CELESTIS-02             
1 25160U 98007D   15113.82329847  .00000138  00000-0  11972-3 0  9997
2 25160 107.9464  56.0517 0064605 267.6914 113.8633 14.21353556891960
CELESTIS-03             
1 26034U 99070C   15113.19011972  .00020380  00000-0  16773-2 0  9990
2 26034  98.2443 239.2009 0012229 274.5781  85.4044 14.99082731827323
